NORAD_CAT_ID,OBJECT_NAME,OBJECT_TYPE,EPOCH,MEAN_MOTION,ECCENTRICITY,INCLINATION,RA_OF_ASC_NODE,ARG_OF_PERICENTER,MEAN_ANOMALY,BSTAR,MEAN_MOTION_DOT,MEAN_MOTION_DDOT,TLE_LINE0,TLE_LINE1,TLE_LINE2,SEMIMAJOR_AXIS,PERIOD,APOGEE,PERIGEE,DECAYED
51867.0,STARLINK-3590,PAYLOAD,2023-08-05 11:05:45,15.08861332,0.0001058,53.2165,301.3911,91.6912,268.4201,0.0011595,0.00018224,0.0,0 STARLINK-3590,1 51867U 22022R   23217.46233618  .00018224  00000-0  11595-2 0  9993,2 51867  53.2165 301.3911 0001058  91.6912 268.4201 15.08861332 80111,6917.815,95.436,540.412,538.948,0.0
51867.0,STARLINK-3590,PAYLOAD,2023-08-05 22:13:27,15.08855619,9.04e-05,53.2163,299.307,90.892,269.2176,0.00080448,0.00012544,0.0,0 STARLINK-3590,1 51867U 22022R   23217.92601429  .00012544  00000-0  80448-3 0  9996,2 51867  53.2163 299.3070 0000904  90.8920 269.2176 15.08855619 80188,6917.833,95.437,540.323,539.072,0.0
51867.0,STARLINK-3590,PAYLOAD,2023-08-06 10:56:33,15.08833836,9.56e-05,53.2166,296.9344,88.0432,272.0669,-0.00012445,-2.267e-05,0.0,0 STARLINK-3590,1 51867U 22022R   23218.45593964 -.00002267  00000-0 -12445-3 0  9994,2 51867  53.2166 296.9344 0000956  88.0432 272.0669 15.08833836 80267,6917.899,95.438,540.426,539.103,0.0
51867.0,STARLINK-3590,PAYLOAD,2023-08-06 22:04:13,15.08860268,4.32e-05,53.2163,294.8536,101.2131,258.891,0.00032003,4.812e-05,0.0,0 STARLINK-3590,1 51867U 22022R   23218.91960555  .00004812  00000-0  32003-3 0  9997,2 51867  53.2163 294.8536 0000432 101.2131 258.8910 15.08860268 80335,6917.818,95.436,539.982,539.385,0.0
51867.0,STARLINK-3590,PAYLOAD,2023-08-07 17:08:52,15.08836227,0.0001111,53.2161,291.2805,85.8662,274.2457,-0.0001712,-3.011e-05,0.0,0 STARLINK-3590,1 51867U 22022R   23219.71449368 -.00003011  00000-0 -17120-3 0  9995,2 51867  53.2161 291.2805 0001111  85.8662 274.2457 15.08836227 80453,6917.892,95.438,540.525,538.988,0.0
51867.0,STARLINK-3590,PAYLOAD,2023-08-08 04:16:34,15.08828222,0.0001133,53.215,289.2006,91.5521,268.56,3.1964e-05,2.21e-06,0.0,0 STARLINK-3590,1 51867U 22022R   23220.17818204  .00000221  00000-0  31964-4 0  9997,2 51867  53.2150 289.2006 0001133  91.5521 268.5600 15.08828222 80523,6917.916,95.438,540.565,538.998,0.0
51867.0,STARLINK-3590,PAYLOAD,2023-08-08 16:59:39,15.08841664,0.0001167,53.2145,286.8213,92.6196,267.493,0.00013509,1.863e-05,0.0,0 STARLINK-3590,1 51867U 22022R   23220.70809583  .00001863  00000-0  13509-3 0  9993,2 51867  53.2145 286.8213 0001167  92.6196 267.4930 15.08841664 80605,6917.875,95.437,540.548,538.933,0.0
51867.0,STARLINK-3590,PAYLOAD,2023-08-08 21:45:49,15.08832001,0.0001454,53.2158,285.931,78.7062,281.4094,-1.8369e-05,-5.8e-06,0.0,0 STARLINK-3590,1 51867U 22022R   23220.90682339 -.00000580  00000-0 -18369-4 0  9990,2 51867  53.2158 285.9310 0001454  78.7062 281.4094 15.08832001 80638,6917.905,95.438,540.776,538.764,0.0
51867.0,STARLINK-3590,PAYLOAD,2023-08-10 03:58:09,15.0883798,0.0001525,53.2151,280.2791,82.6439,277.4727,0.00031931,4.797e-05,0.0,0 STARLINK-3590,1 51867U 22022R   23222.16539126  .00004797  00000-0  31931-3 0  9996,2 51867  53.2151 280.2791 0001525  82.6439 277.4727 15.08837980 80823,6917.887,95.438,540.807,538.697,0.0
51867.0,STARLINK-3590,PAYLOAD,2023-08-10 13:30:28,15.08849522,0.0001461,53.2151,278.4952,82.3971,277.7187,0.00033416,5.036e-05,0.0,0 STARLINK-3590,1 51867U 22022R   23222.56282546  .00005036  00000-0  33416-3 0  9998,2 51867  53.2151 278.4952 0001461  82.3971 277.7187 15.08849522 80882,6917.851,95.437,540.727,538.706,0.0
51867.0,STARLINK-3590,PAYLOAD,2023-08-10 21:27:23,15.08845112,0.000135,53.2148,277.0084,87.7572,272.3575,0.00023198,3.406e-05,0.0,0 STARLINK-3590,1 51867U 22022R   23222.89402764  .00003406  00000-0  23198-3 0  9995,2 51867  53.2148 277.0084 0001350  87.7572 272.3575 15.08845112 80931,6917.865,95.437,540.664,538.796,0.0
51867.0,STARLINK-3590,PAYLOAD,2023-08-11 10:10:29,15.08841484,0.0001539,53.2156,274.6284,87.0347,273.0821,0.00014662,2.046e-05,0.0,0 STARLINK-3590,1 51867U 22022R   23223.42395061  .00002046  00000-0  14662-3 0  9991,2 51867  53.2156 274.6284 0001539  87.0347 273.0821 15.08841484 81017,6917.876,95.437,540.806,538.676,0.0
51867.0,STARLINK-3590,PAYLOAD,2023-08-12 19:33:35,15.08840277,0.000151,53.2161,268.3823,88.8086,271.3079,5.3266e-06,-2.03e-06,0.0,0 STARLINK-3590,1 51867U 22022R   23224.81499055 -.00000203  00000-0  53266-5 0  9992,2 51867  53.2161 268.3823 0001510  88.8086 271.3079 15.08840277 81228,6917.88,95.438,540.789,538.7,0.0
51867.0,STARLINK-3590,PAYLOAD,2023-08-14 03:21:18,15.08838501,0.0001437,53.2161,262.4361,93.8304,266.2852,0.00012635,1.723e-05,0.0,0 STARLINK-3590,1 51867U 22022R   23226.13979476  .00001723  00000-0  12635-3 0  9999,2 51867  53.2161 262.4361 0001437  93.8304 266.2852 15.08838501 81428,6917.885,95.438,540.744,538.756,0.0
51867.0,STARLINK-3590,PAYLOAD,2023-08-15 07:58:14,15.08840516,0.000146,53.2144,257.0851,88.64,271.476,5.9497e-05,6.59e-06,0.0,0 STARLINK-3590,1 51867U 22022R   23227.33211308  .00000659  00000-0  59497-4 0  9990,2 51867  53.2144 257.0851 0001460  88.6400 271.4760 15.08840516 81603,6917.879,95.438,540.754,538.734,0.0
51867.0,STARLINK-3590,PAYLOAD,2023-08-16 09:24:24,15.08843664,0.0001411,53.2157,252.3272,88.5931,271.5222,6.4889e-05,7.45e-06,0.0,0 STARLINK-3590,1 51867U 22022R   23228.39195383  .00000745  00000-0  64889-4 0  9998,2 51867  53.2157 252.3272 0001411  88.5931 271.5222 15.08843664 81764,6917.869,95.437,540.71,538.758,0.0
51867.0,STARLINK-3590,PAYLOAD,2023-08-17 10:50:34,15.08842413,0.0001412,53.2155,247.5668,90.8448,269.2706,6.9873e-05,8.24e-06,0.0,0 STARLINK-3590,1 51867U 22022R   23229.45179363  .00000824  00000-0  69873-4 0  9992,2 51867  53.2155 247.5668 0001412  90.8448 269.2706 15.08842413 81927,6917.873,95.437,540.715,538.761,0.0
51867.0,STARLINK-3590,PAYLOAD,2023-08-18 12:16:44,15.08845083,0.0001485,53.2162,242.8097,87.2269,272.8894,7.9703e-05,9.81e-06,0.0,0 STARLINK-3590,1 51867U 22022R   23230.51163118  .00000981  00000-0  79703-4 0  9999,2 51867  53.2162 242.8097 0001485  87.2269 272.8894 15.08845083 82082,6917.865,95.437,540.757,538.703,0.0
51867.0,STARLINK-3590,PAYLOAD,2023-08-19 04:10:36,15.088395,0.0001481,53.2163,239.8359,89.2284,270.8878,5.8173e-05,6.38e-06,0.0,0 STARLINK-3590,1 51867U 22022R   23231.17403509  .00000638  00000-0  58173-4 0  9990,2 51867  53.2163 239.8359 0001481  89.2284 270.8878 15.08839500 82183,6917.882,95.438,540.771,538.722,0.0
51867.0,STARLINK-3590,PAYLOAD,2023-08-20 05:36:47,15.08837341,0.0001497,53.2159,235.0771,100.19,259.9261,-1.2599e-06,-3.08e-06,0.0,0 STARLINK-3590,1 51867U 22022R   23232.23387773 -.00000308  00000-0 -12599-5 0  9991,2 51867  53.2159 235.0771 0001497 100.1900 259.9261 15.08837341 82342,6917.889,95.438,540.789,538.718,0.0
51867.0,STARLINK-3590,PAYLOAD,2023-08-21 07:02:57,15.08838866,0.0001359,53.2155,230.3204,95.1412,264.9735,2.8404e-05,1.64e-06,0.0,0 STARLINK-3590,1 51867U 22022R   23233.29371837  .00000164  00000-0  28404-4 0  9991,2 51867  53.2155 230.3204 0001359  95.1412 264.9735 15.08838866 82508,6917.884,95.438,540.689,538.809,0.0
51867.0,STARLINK-3590,PAYLOAD,2023-08-22 08:29:07,15.08840632,0.0001444,53.2161,225.563,91.503,268.6128,7.4867e-05,9.04e-06,0.0,0 STARLINK-3590,1 51867U 22022R   23234.35355883  .00000904  00000-0  74867-4 0  9998,2 51867  53.2161 225.5630 0001444  91.5030 268.6128 15.08840632 82663,6917.878,95.438,540.742,538.745,0.0
51867.0,STARLINK-3590,PAYLOAD,2023-08-23 01:58:22,15.08836282,0.0001521,53.2156,222.2917,107.2771,252.8388,-5.7156e-07,-2.97e-06,0.0,0 STARLINK-3590,1 51867U 22022R   23235.08220511 -.00000297  00000-0 -57156-6 0  9999,2 51867  53.2156 222.2917 0001521 107.2771 252.8388 15.08836282 82773,6917.892,95.438,540.809,538.705,0.0
51867.0,STARLINK-3590,PAYLOAD,2023-08-24 08:10:41,15.08841891,0.0001429,53.2158,216.6429,84.114,276.0015,5.1199e-05,5.27e-06,0.0,0 STARLINK-3590,1 51867U 22022R   23236.34076347  .00000527  00000-0  51199-4 0  9998,2 51867  53.2158 216.6429 0001429  84.1140 276.0015 15.08841891 82968,6917.875,95.437,540.728,538.751,0.0
51867.0,STARLINK-3590,PAYLOAD,2023-08-25 09:36:51,15.08849945,0.0001469,53.2161,211.8848,85.5722,274.5438,0.00013583,1.875e-05,0.0,0 STARLINK-3590,1 51867U 22022R   23237.40059469  .00001875  00000-0  13583-3 0  9993,2 51867  53.2161 211.8848 0001469  85.5722 274.5438 15.08849945 83128,6917.85,95.437,540.731,538.699,0.0
51867.0,STARLINK-3590,PAYLOAD,2023-08-25 22:19:57,15.08838998,0.0001358,53.217,209.5051,89.7568,270.358,1.3718e-05,-7e-07,0.0,0 STARLINK-3590,1 51867U 22022R   23237.93052519 -.00000070  00000-0  13718-4 0  9998,2 51867  53.2170 209.5051 0001358  89.7568 270.3580 15.08838998 83206,6917.883,95.438,540.688,538.809,0.0
51867.0,STARLINK-3590,PAYLOAD,2023-08-26 01:30:43,15.08839904,0.000149,53.2156,208.9094,103.6537,256.4621,1.7161e-05,-1.5e-07,0.0,0 STARLINK-3590,1 51867U 22022R   23238.06300274 -.00000015  00000-0  17161-4 0  9992,2 51867  53.2156 208.9094 0001490 103.6537 256.4621 15.08839904 83220,6917.881,95.438,540.776,538.715,0.0
51867.0,STARLINK-3590,PAYLOAD,2023-08-26 07:52:15,15.0884341,0.0001347,53.2157,207.72,93.4959,266.6188,3.8487e-05,3.25e-06,0.0,0 STARLINK-3590,1 51867U 22022R   23238.32796081  .00000325  00000-0  38487-4 0  9993,2 51867  53.2157 207.7200 0001347  93.4959 266.6188 15.08843410 83264,6917.87,95.437,540.667,538.803,0.0
51867.0,STARLINK-3590,PAYLOAD,2023-08-27 02:56:53,15.08842515,0.0001425,53.2164,204.1527,101.2285,258.8868,-5.3981e-05,-1.147e-05,0.0,0 STARLINK-3590,1 51867U 22022R   23239.12284420 -.00001147  00000-0 -53981-4 0  9992,2 51867  53.2164 204.1527 0001425 101.2285 258.8868 15.08842515 83388,6917.873,95.437,540.723,538.752,0.0
51867.0,STARLINK-3590,PAYLOAD,2023-08-27 07:43:02,15.08840752,0.0001502,53.2164,203.2602,117.036,243.0785,3.3033e-05,2.38e-06,0.0,0 STARLINK-3590,1 51867U 22022R   23239.32156159  .00000238  00000-0  33033-4 0  9995,2 51867  53.2164 203.2602 0001502 117.0360 243.0785 15.08840752 83416,6917.878,95.438,540.782,538.704,0.0
